NORAD_CAT_ID,OBJECT_NAME,OBJECT_TYPE,EPOCH,MEAN_MOTION,ECCENTRICITY,INCLINATION,RA_OF_ASC_NODE,ARG_OF_PERICENTER,MEAN_ANOMALY,BSTAR,MEAN_MOTION_DOT,MEAN_MOTION_DDOT,TLE_LINE0,TLE_LINE1,TLE_LINE2,SEMIMAJOR_AXIS,PERIOD,APOGEE,PERIGEE,DECAYED
50812.0,STARLINK-3338,PAYLOAD,2022-03-06 06:00:00,15.73234562,0.0002113,53.2144,270.2803,27.2395,55.4207,-5.9189e-05,-8.933e-05,0.0,0 STARLINK-3338,1 50812U 22001K   22065.25001157 -.00008933  00000-0 -59189-4 0  9998,2 50812  53.2144 270.2803 0002113  27.2395  55.4207 15.73234562 10477,6727.797,91.531,351.083,348.24,0.0
50812.0,STARLINK-3338,PAYLOAD,2022-03-06 14:00:01,15.732059699999995,0.0001963,53.2146,268.6298,27.4201,144.2006,0.00021743,0.00030012,0.0,0 STARLINK-3338,1 50812U 22001K   22065.58334491  .00030012  00000-0  21743-3 0  9999,2 50812  53.2146 268.6298 0001963  27.4201 144.2006 15.73205970  3688,6727.878000000002,91.533,351.064,348.422,0.0
50812.0,STARLINK-3338,PAYLOAD,2022-03-06 22:00:00,15.73238866,0.0002215,53.2143,266.9823,22.2237,238.3426,-0.00038627,-0.00054578,0.0,0 STARLINK-3338,1 50812U 22001K   22065.91667824 -.00054578  00000-0 -38627-3 0  9999,2 50812  53.2143 266.9823 0002215  22.2237 238.3426 15.73238866  3707,6727.784000000002,91.531,351.14,348.159,0.0
50812.0,STARLINK-3338,PAYLOAD,2022-03-07 06:00:00,15.73219285,0.0002074,53.2138,265.3312,23.3168,326.1987,-0.00098729,-0.00137076,0.0,0 STARLINK-3338,1 50812U 22001K   22066.25001157 -.00137076  00000-0 -98729-3 0  9992,2 50812  53.2138 265.3312 0002074  23.3168 326.1987 15.73219285 10626,6727.84,91.532,351.101,348.31,0.0
50812.0,STARLINK-3338,PAYLOAD,2022-03-07 12:00:00,15.73107508,0.0002057,53.2139,264.0931,31.212,294.9906,0.00035953,0.0004994,0.0,0 STARLINK-3338,1 50812U 22001K   22066.50001157  .00049940  00000-0  35953-3 0  9990,2 50812  53.2139 264.0931 0002057  31.2120 294.9906 15.73107508 10668,6728.159000000002,91.539,351.408,348.64,0.0
50812.0,STARLINK-3338,PAYLOAD,2022-03-07 22:00:00,15.73116587,0.0002376,53.2145,262.0338,28.1255,139.1136,0.00058022,0.00081315,0.0,0 STARLINK-3338,1 50812U 22001K   22066.91667824  .00081315  00000-0  58022-3 0  9998,2 50812  53.2145 262.0338 0002376  28.1255 139.1136 15.73116587 10732,6728.1330000000025,91.538,351.597,348.399,0.0
50812.0,STARLINK-3338,PAYLOAD,2022-03-08 14:00:01,15.73222728,0.000225,53.2146,258.7328,30.853,314.1645,0.00027389,0.00038032,0.0,0 STARLINK-3338,1 50812U 22001K   22067.58334491  .00038032  00000-0  27389-3 0  9993,2 50812  53.2146 258.7328 0002250  30.8530 314.1645 15.73222728  3705,6727.83,91.532,351.209,348.182,0.0
50812.0,STARLINK-3338,PAYLOAD,2022-03-08 20:00:01,15.73257028,0.0002428,53.2143,257.4973,26.6028,295.1354,-0.00017321,-0.00024922,0.0,0 STARLINK-3338,1 50812U 22001K   22067.83334491 -.00024922  00000-0 -17321-3 0  9991,2 50812  53.2143 257.4973 0002428  26.6028 295.1354 15.73257028 10878,6727.733,91.53,351.231,347.964,0.0
50812.0,STARLINK-3338,PAYLOAD,2022-03-08 22:00:00,15.73255882,0.0002442,53.2143,257.0853,25.097,48.8889,-0.0002124,-0.00030399,0.0,0 STARLINK-3338,1 50812U 22001K   22067.91667824 -.00030399  00000-0 -21240-3 0  9999,2 50812  53.2143 257.0853 0002442  25.0970  48.8889 15.73255882  3713,6727.736,91.53,351.244,347.958,0.0
50812.0,STARLINK-3338,PAYLOAD,2022-03-09 14:00:01,15.73180248,0.0002132,53.2142,253.7843,22.2903,229.6067,-2.4864e-05,-4.106e-05,0.0,0 STARLINK-3338,1 50812U 22001K   22068.58334491 -.00004106  00000-0 -24864-4 0  9997,2 50812  53.2142 253.7843 0002132  22.2903 229.6067 15.73180248 10993,6727.951,91.534,351.251,348.38199999999995,0.0
50812.0,STARLINK-3338,PAYLOAD,2022-03-09 22:00:01,15.73173717,0.0002441,53.2143,252.1367,20.6182,320.2328,0.00050013,0.00070084,0.0,0 STARLINK-3338,1 50812U 22001K   22068.91668981  .00070084  00000-0  50013-3 0  9998,2 50812  53.2143 252.1367 0002441  20.6182 320.2328 15.73173717  3692,6727.97,91.535,351.477,348.1930000000001,0.0
50812.0,STARLINK-3338,PAYLOAD,2022-03-10 06:00:00,15.73208929,0.0002315,53.2144,250.4854,22.6428,47.0839,-0.00015515,-0.00022349,0.0,0 STARLINK-3338,1 50812U 22001K   22069.25001157 -.00022349  00000-0 -15515-3 0  9993,2 50812  53.2144 250.4854 0002315  22.6428  47.0839 15.73208929 11100,6727.87,91.533,351.292,348.177,0.0
50812.0,STARLINK-3338,PAYLOAD,2022-03-10 14:00:01,15.73219344,0.0002413,53.2144,248.8359,26.5352,132.1194,0.00027028,0.00037515,0.0,0 STARLINK-3338,1 50812U 22001K   22069.58334491  .00037515  00000-0  27028-3 0  9990,2 50812  53.2144 248.8359 0002413  26.5352 132.1194 15.73219344  3664,6727.84,91.532,351.32800000000015,348.082,0.0
50812.0,STARLINK-3338,PAYLOAD,2022-03-10 20:00:01,15.73254427,0.0002624,53.214,247.6003,23.159,112.215,-0.00016223,-0.00023384,0.0,0 STARLINK-3338,1 50812U 22001K   22069.83334491 -.00023384  00000-0 -16223-3 0  9994,2 50812  53.2140 247.6003 0002624  23.1590 112.2150 15.73254427 11193,6727.74,91.53,351.37,347.84,0.0
50812.0,STARLINK-3338,PAYLOAD,2022-03-10 22:00:01,15.73248753,0.000263,53.214,247.1881,21.2816,226.4064,-0.00012979,-0.00018838,0.0,0 STARLINK-3338,1 50812U 22001K   22069.91668981 -.00018838  00000-0 -12979-3 0  9999,2 50812  53.2140 247.1881 0002630  21.2816 226.4064 15.73248753  3704,6727.755999999999,91.53,351.391,347.852,0.0
50812.0,STARLINK-3338,PAYLOAD,2022-03-11 14:00:01,15.73249606,0.0002363,53.2138,243.8872,17.5221,48.0473,-0.00047286,-0.00066612,0.0,0 STARLINK-3338,1 50812U 22001K   22070.58334491 -.00066612  00000-0 -47286-3 0  9992,2 50812  53.2138 243.8872 0002363  17.5221  48.0473 15.73249606  3671,6727.754,91.53,351.209,348.029,0.0
50812.0,STARLINK-3338,PAYLOAD,2022-03-11 20:00:01,15.73188394,0.0002595,53.2139,242.6515,17.3945,24.9255,0.00035685,0.00049738,0.0,0 STARLINK-3338,1 50812U 22001K   22070.83334491  .00049738  00000-0  35685-3 0  9998,2 50812  53.2139 242.6515 0002595  17.3945  24.9255 15.73188394 11352,6727.928000000001,91.534,351.539,348.047,0.0
50812.0,STARLINK-3338,PAYLOAD,2022-03-11 22:00:00,15.73169542,0.000264,53.2138,242.2393,16.2892,138.2705,0.00074778,0.00105525,0.0,0 STARLINK-3338,1 50812U 22001K   22070.91667824  .00105525  00000-0  74778-3 0  9999,2 50812  53.2138 242.2393 0002640  16.2892 138.2705 15.73169542  3681,6727.982,91.535,351.62300000000016,348.071,0.0
50812.0,STARLINK-3338,PAYLOAD,2022-03-12 14:00:01,15.73211375,0.0002643,53.2139,238.9383,20.6517,311.7726,-0.00031497,-0.00044622,0.0,0 STARLINK-3338,1 50812U 22001K   22071.58334491 -.00044622  00000-0 -31497-3 0  9997,2 50812  53.2139 238.9383 0002643  20.6517 311.7726 15.73211375 11467,6727.863,91.533,351.506,347.95,0.0
50812.0,STARLINK-3338,PAYLOAD,2022-03-12 22:00:00,15.73167896,0.0002915,53.2133,237.2904,19.7842,41.5762,0.00076703,0.0010829,0.0,0 STARLINK-3338,1 50812U 22001K   22071.91667824  .00108290  00000-0  76703-3 0  9992,2 50812  53.2133 237.2904 0002915  19.7842  41.5762 15.73167896 11527,6727.986999999999,91.535,351.81300000000016,347.89,0.0
50812.0,STARLINK-3338,PAYLOAD,2022-03-13 06:00:00,15.73231614,0.0002582,53.2131,235.6388,16.3526,133.9314,-0.00072745,-0.00101648,0.0,0 STARLINK-3338,1 50812U 22001K   22072.25001157 -.00101648  00000-0 -72745-3 0  9995,2 50812  53.2131 235.6388 0002582  16.3526 133.9314 15.73231614 11579,6727.805,91.531,351.407,347.93300000000005,0.0
50812.0,STARLINK-3338,PAYLOAD,2022-03-13 14:00:01,15.73165159,0.0002642,53.2133,233.9898,14.8604,224.3501,-0.00062459,-0.00087264,0.0,0 STARLINK-3338,1 50812U 22001K   22072.58334491 -.00087264  00000-0 -62459-3 0  9999,2 50812  53.2133 233.9898 0002642  14.8604 224.3501 15.73165159  3704,6727.995,91.535,351.63699999999994,348.082,0.0
50812.0,STARLINK-3338,PAYLOAD,2022-03-13 20:00:01,15.73069963,0.0002923,53.2135,232.7542,14.6249,201.2357,0.00067506,0.00094677,0.0,0 STARLINK-3338,1 50812U 22001K   22072.83334491  .00094677  00000-0  67506-3 0  9999,2 50812  53.2135 232.7542 0002923  14.6249 201.2357 15.73069963 11667,6728.266,91.541,352.098,348.164,0.0
50812.0,STARLINK-3338,PAYLOAD,2022-03-13 22:00:01,15.73081435,0.0002949,53.2133,232.3418,13.9694,314.1545,0.0007087,0.00099533,0.0,0 STARLINK-3338,1 50812U 22001K   22072.91668981  .00099533  00000-0  70870-3 0  9996,2 50812  53.2133 232.3418 0002949  13.9694 314.1545 15.73081435  3704,6728.233,91.54,352.082,348.11400000000015,0.0
50812.0,STARLINK-3338,PAYLOAD,2022-03-14 04:00:00,15.73147509,0.0002815,53.2136,231.103,14.6281,290.0746,0.0008392999999999,0.00118592,0.0,0 STARLINK-3338,1 50812U 22001K   22073.16667824  .00118592  00000-0  83930-3 0  9997,2 50812  53.2136 231.1030 0002815  14.6281 290.0746 15.73147509 11716,6728.045,91.536,351.80400000000014,348.016,0.0
50812.0,STARLINK-3338,PAYLOAD,2022-03-14 12:00:00,15.73190532,0.0002838,53.2167,229.4512,18.3517,15.1714,0.00015949,0.00021814,0.0,0 STARLINK-3338,1 50812U 22001K   22073.50001157  .00021814  00000-0  15949-3 0  9991,2 50812  53.2167 229.4512 0002838  18.3517  15.1714 15.73190532 11774,6727.922,91.534,351.69699999999995,347.87800000000016,0.0
50812.0,STARLINK-3338,PAYLOAD,2022-03-14 14:00:01,15.73204589,0.0002885,53.2172,229.0393,19.2231,126.5921,-9.5633e-07,-7.57e-06,0.0,0 STARLINK-3338,1 50812U 22001K   22073.58335648 -.00000757  00000-0 -95633-6 0  9990,2 50812  53.2172 229.0393 0002885  19.2231 126.5921 15.73204589  3673,6727.882,91.533,351.68800000000016,347.806,0.0
50812.0,STARLINK-3338,PAYLOAD,2022-03-14 20:00:01,15.73181684,0.00031,53.2135,227.8056,10.3177,112.1172,0.00082985,0.0011741,0.0,0 STARLINK-3338,1 50812U 22001K   22073.83334491  .00117410  00000-0  82985-3 0  9999,2 50812  53.2135 227.8056 0003100  10.3177 112.1172 15.73181684  3664,6727.946999999999,91.534,351.898,347.727,0.0
50812.0,STARLINK-3338,PAYLOAD,2022-03-14 22:00:00,15.73202654,0.0003119,53.2131,227.3931,9.4269,225.2386,0.00075961,0.00107388,0.0,0 STARLINK-3338,1 50812U 22001K   22073.91667824  .00107388  00000-0  75961-3 0  9996,2 50812  53.2131 227.3931 0003119   9.4269 225.2386 15.73202654 11830,6727.888000000001,91.533,351.851,347.654,0.0
